*******************************************************************************
JPL/HORIZONS                 569 Misa (A905 OE)            2020-Jun-22 09:14:41
Rec #:     569 (+COV) Soln.date: 2020-May-20_01:08:28   # obs: 3059 (1909-2020)
 
IAU76/J2000 helio. ecliptic osc. elements (au, days, deg., period=Julian yrs):
 
  EPOCH=  2456077.5 ! 2012-May-30.00 (TDB)         Residual RMS= .33867
   EC= .1799222630194537   QR= 2.180260793828096   TP= 2455438.6391476677
   OM= 301.8263038180719   W=  142.8745142759121   IN= 1.292369664301974
   A= 2.65860258791517     MA= 145.2547073482091   ADIST= 3.136944382002243
   PER= 4.33499            N= .227365165           ANGMOM= .027590677
   DAN= 3.00339            DDN= 2.24979            L= 84.7078326
   B= .779984              MOID= 1.19668996        TP= 2010-Aug-30.1391476677
 
Asteroid physical parameters (km, seconds, rotational period in hours):
   GM= n.a.                RAD= 36.475             ROTPER= 11.595
   H= 10.2                 G= .150                 B-V= .716
                           ALBEDO= .0297           STYP= Cg
 
ASTEROID comments: 
1: soln ref.= JPL#34, OCC=0
2: source=ORB
*******************************************************************************
 
 
*******************************************************************************
Ephemeris / WWW_USER Mon Jun 22 09:14:41 2020 Pasadena, USA      / Horizons
*******************************************************************************
Target body name: 569 Misa (A905 OE)              {source: JPL#34}
Center body name: Solar System Barycenter (0)     {source: DE431}
Center-site name: BODY CENTER
*******************************************************************************
Start time      : A.D. 1969-Jun-28 00:00:00.0000 TDB
Stop  time      : A.D. 2071-May-04 00:00:00.0000 TDB
Step-size       : 7200 minutes
*******************************************************************************
Center geodetic : 0.00000000,0.00000000,0.0000000 {E-lon(deg),Lat(deg),Alt(km)}
Center cylindric: 0.00000000,0.00000000,0.0000000 {E-lon(deg),Dxy(km),Dz(km)}
Center radii    : (undefined)                                                  
Small perturbers: Yes                             {source: SB431-N16}
Output units    : AU-D
Output type     : GEOMETRIC cartesian states
Output format   : 2 (position and velocity)
Reference frame : Ecliptic of J2000.0
*******************************************************************************
Initial IAU76/J2000 heliocentric ecliptic osculating elements (au, days, deg.):
  EPOCH=  2456077.5 ! 2012-May-30.00 (TDB)         Residual RMS= .33867        
   EC= .1799222630194537   QR= 2.180260793828096   TP= 2455438.6391476677      
   OM= 301.8263038180719   W=  142.8745142759121   IN= 1.292369664301974       
  Equivalent ICRF heliocentric equatorial cartesian coordinates (au, au/d):
   X=-1.545054914491094E+00  Y=-2.413550206296551E+00  Z=-1.113136629812816E+00
  VX= 7.348864663632102E-03 VY=-4.815443042783144E-03 VZ=-2.001831474387730E-03
Asteroid physical parameters (km, seconds, rotational period in hours):        
   GM= n.a.                RAD= 36.475             ROTPER= 11.595              
   H= 10.2                 G= .150                 B-V= .716                   
                           ALBEDO= .0297           STYP= Cg                    
*******************************************************************************
            JDTDB,            Calendar Date (TDB),        delta-T,                      X,                      Y,                      Z,                     VX,                     VY,                     VZ,
******************************************************************************************************************************************************************************************************************
$$SOE
2458460.500000000, A.D. 2018-Dec-08 00:00:00.0000,      69.183243,  1.786238495132702E+00,  1.427118717328495E+00,  5.102434812273089E-02, -8.618116049475140E-03,  8.590776919268199E-03, -6.324065716891362E-05,
2458465.500000000, A.D. 2018-Dec-13 00:00:00.0000,      69.183378,  1.742595072128905E+00,  1.469625265483367E+00,  5.069224449249126E-02, -8.838679171306488E-03,  8.410684502666932E-03, -6.960349849496772E-05,
2458470.500000000, A.D. 2018-Dec-18 00:00:00.0000,      69.183517,  1.697857664970512E+00,  1.511214019660308E+00,  5.032829077833258E-02, -9.055665280262828E-03,  8.223666880897122E-03, -7.597974902590980E-05,
2458475.500000000, A.D. 2018-Dec-23 00:00:00.0000,      69.183658,  1.652044827086211E+00,  1.551850477517207E+00,  4.993243421957655E-02, -9.268806672578522E-03,  8.029775618623733E-03, -8.236366295111582E-05,
2458480.500000000, A.D. 2018-Dec-28 00:00:00.0000,      69.183801,  1.605176455241619E+00,  1.591500426214674E+00,  4.950465125274831E-02, -9.477833829166690E-03,  7.829075013408746E-03, -8.874930862717834E-05,
2458485.500000000, A.D. 2019-Jan-02 00:00:00.0000,      69.183948,  1.557273796902220E+00,  1.630130006965868E+00,  4.904494841829467E-02, -9.682476107990876E-03,  7.621642443349348E-03, -9.513057776426051E-05,
2458490.500000000, A.D. 2019-Jan-07 00:00:00.0000,      69.184096,  1.508359454032700E+00,  1.667705781223239E+00,  4.855336321823315E-02, -9.882462476758122E-03,  7.407568673449613E-03, -1.015011958702380E-04,
2458495.500000000, A.D. 2019-Jan-12 00:00:00.0000,      69.184243,  1.458457383137099E+00,  1.704194798284598E+00,  4.802996491840644E-02, -1.007752228344662E-02,  7.186958116240407E-03, -1.078547339659529E-04,
2458500.500000000, A.D. 2019-Jan-17 00:00:00.0000,      69.184387,  1.407592891357762E+00,  1.739564664078779E+00,  4.747485528898266E-02, -1.026738606172795E-02,  6.959929042285139E-03, -1.141846215691351E-04,
2458505.500000000, A.D. 2019-Jan-22 00:00:00.0000,      69.184527,  1.355792628466993E+00,  1.773783610869804E+00,  4.688816927690009E-02, -1.045178636784588E-02,  6.726613736396061E-03, -1.204841609295738E-04,
2458510.500000000, A.D. 2019-Jan-27 00:00:00.0000,      69.184662,  1.303084574603782E+00,  1.806820567598158E+00,  4.627007560406786E-02, -1.063045864501967E-02,  6.487158595630001E-03, -1.267465424842064E-04,
2458515.500000000, A.D. 2019-Feb-01 00:00:00.0000,      69.184795,  1.249498023628788E+00,  1.838645230558862E+00,  4.562077728533748E-02, -1.080314211095474E-02,  6.241724165437199E-03, -1.329648614854065E-04,
2458520.500000000, A.D. 2019-Feb-06 00:00:00.0000,      69.184922,  1.195063561994077E+00,  1.869228134098832E+00,  4.494051206052650E-02, -1.096958066358551E-02,  5.990485110726553E-03, -1.391321357392341E-04,
2458525.500000000, A.D. 2019-Feb-11 00:00:00.0000,      69.185041,  1.139813043049557E+00,  1.898540721001036E+00,  4.422955273514287E-02, -1.112952379972571E-02,  5.733630119112143E-03, -1.452413243717057E-04,
2458530.500000000, A.D. 2019-Feb-16 00:00:00.0000,      69.185151,  1.083779556735927E+00,  1.926555412210837E+00,  4.348820742490420E-02, -1.128272754078974E-02,  5.471361734250647E-03, -1.512853475302542E-04,
2458535.500000000, A.D. 2019-Feb-21 00:00:00.0000,      69.185251,  1.026997394644799E+00,  1.953245675550982E+00,  4.271681969954708E-02, -1.142895535904058E-02,  5.203896117702457E-03, -1.572571069640385E-04,
2458540.500000000, A.D. 2019-Feb-26 00:00:00.0000,      69.185342,  9.695020104608986E-01,  1.978586093063156E+00,  4.191576862147726E-02, -1.156797909741883E-02,  4.931462737238812E-03, -1.631495075145237E-04,
2458545.500000000, A.D. 2019-Mar-03 00:00:00.0000,      69.185424,  9.113299758326598E-01,  2.002552426601067E+00,  4.108546867486457E-02, -1.169957987769058E-02,  4.654303978851430E-03, -1.689554793832751E-04,
2458550.500000000, A.D. 2019-Mar-08 00:00:00.0000,      69.185497,  8.525189317402486E-01,  2.025121681294939E+00,  4.022636958256578E-02, -1.182354899224499E-02,  4.372674684136572E-03, -1.746680006478108E-04,
2458555.500000000, A.D. 2019-Mar-13 00:00:00.0000,      69.185557,  7.931075354639636E-01,  2.046272166526760E+00,  3.933895601026526E-02, -1.193968877031857E-02,  4.086841617635870E-03, -1.802801199026537E-04,
2458560.500000000, A.D. 2019-Mar-18 00:00:00.0000,      69.185605,  7.331354033053947E-01,  2.065983554067378E+00,  3.842374715647314E-02, -1.204781340957669E-02,  3.797082863943471E-03, -1.857849792906757E-04,
2458565.500000000, A.D. 2019-Mar-23 00:00:00.0000,      69.185639,  6.726430492484153E-01,  2.084236933022441E+00,  3.748129622668631E-02, -1.214774976778432E-02,  3.503687154465826E-03, -1.911758377475772E-04,
2458570.500000000, A.D. 2019-Mar-28 00:00:00.0000,      69.185661,  6.116718197730673E-01,  2.101014861242874E+00,  3.651218979147999E-02, -1.223933810892293E-02,  3.206953127177906E-03, -1.964460941424888E-04,
2458575.500000000, A.D. 2019-Apr-02 00:00:00.0000,      69.185673,  5.502638250663060E-01,  2.116301412875718E+00,  3.551704702958502E-02, -1.232243279724449E-02,  2.907188523760841E-03, -2.015893101177488E-04,
2458580.500000000, A.D. 2019-Apr-07 00:00:00.0000,      69.185673,  4.884618669057560E-01,  2.130082221753672E+00,  3.449651885783305E-02, -1.239690293301990E-02,  2.604709328748750E-03, -2.065992324758506E-04,
2458585.500000000, A.D. 2019-Apr-12 00:00:00.0000,      69.185661,  4.263093635224386E-01,  2.142344520345884E+00,  3.345128695062201E-02, -1.246263292430449E-02,  2.299838855777355E-03, -2.114698149588073E-04,
2458590.500000000, A.D. 2019-Apr-17 00:00:00.0000,      69.185634,  3.638502717753543E-01,  2.153077174019436E+00,  3.238206265233435E-02, -1.251952298963113E-02,  1.992906786608809E-03, -2.161952392604578E-04,
2458595.500000000, A.D. 2019-Apr-22 00:00:00.0000,      69.185595,  3.011290069947498E-01,  2.162270710390781E+00,  3.128958578694272E-02, -1.256748958715035E-02,  1.684248169164516E-03, -2.207699351133111E-04,
